[{"OBJECT_NAME":"IONOSFERA-M 3","OBJECT_ID":"2025-155A","EPOCH":"2026-03-09T23:55:45.856992","MEAN_MOTION":14.2146666,"ECCENTRICITY":0.00021277,"INCLINATION":98.5924,"RA_OF_ASC_NODE":33.457,"ARG_OF_PERICENTER":117.7739,"MEAN_ANOMALY":242.3654,"EPHEMERIS_TYPE":0,"CLASSIFICATION_TYPE":"U","NORAD_CAT_ID":64876,"ELEMENT_SET_NO":999,"REV_AT_EPOCH":3231,"BSTAR":7.6669026e-5,"MEAN_MOTION_DOT":1.25e-6,"MEAN_MOTION_DDOT":0},{"OBJECT_NAME":"NOAA 16 DEB","OBJECT_ID":"2000-055HE","EPOCH":"2026-03-08T00:41:27.037824","MEAN_MOTION":14.24907492,"ECCENTRICITY":0.0022927,"INCLINATION":98.7149,"RA_OF_ASC_NODE":129.7274,"ARG_OF_PERICENTER":142.4746,"MEAN_ANOMALY":217.8039,"EPHEMERIS_TYPE":0,"CLASSIFICATION_TYPE":"U","NORAD_CAT_ID":41302,"ELEMENT_SET_NO":999,"REV_AT_EPOCH":52460,"BSTAR":0.0023558706,"MEAN_MOTION_DOT":5.479e-5,"MEAN_MOTION_DDOT":0}]
